STARLINK-5875           
1 57221U 23094D   23217.33334491 -.00927020  00000+0 -14025-1 0  9994
2 57221  42.9999 145.4604 0001444 279.0786 157.6586 15.56541850  4706
STARLINK-5870           
1 57222U 23094E   23217.83334491 -.00920315  00000+0 -14426-1 0  9995
2 57222  42.9995 142.5078 0001465 262.3092 100.1927 15.55574757  4774
STARLINK-5519           
1 57223U 23094F   23218.83334491 -.00920848  00000+0 -15520-1 0  9994
2 57223  42.9990 136.6273 0001221 263.2799 301.6464 15.53618316  4935
STARLINK-5983           
1 57224U 23094G   23219.16668981 -.00865699  00000+0 -14864-1 0  9998
2 57224  42.9995 134.6665 0001345 268.5711   4.1960 15.52944949  4987
STARLINK-6294           
1 57225U 23094H   23217.83334491 -.00918846  00000+0 -14395-1 0  9999
2 57225  42.9996 142.5037 0001465 265.5129  98.5294 15.55585331  4776
STARLINK-6350           
1 57226U 23094J   23216.58334491 -.00902299  00000+0 -12873-1 0  9995
2 57226  42.9998 149.8743 0001469 260.7243 292.3321 15.58023766  4587
STARLINK-5996           
1 57227U 23094K   23218.08334491 -.00893937  00000+0 -14228-1 0  9997
2 57227  42.9994 141.0291 0001397 266.7985  60.2790 15.55087685  4810
STARLINK-6230           
1 57228U 23094L   23218.83334491 -.00923194  00000+0 -15535-1 0  9992
2 57228  42.9998 136.6103 0001223 254.4382 316.8153 15.53668325  4930
STARLINK-6233           
1 57229U 23094M   23219.16668981 -.00865042  00000+0 -14839-1 0  9997
2 57229  42.9995 134.6585 0001362 266.0533   9.9076 15.52968144  4981
STARLINK-6250           
1 57230U 23094N   23218.83334491 -.00919824  00000+0 -15471-1 0  9999
2 57230  42.9995 136.6080 0001178 260.1665 311.8792 15.53671379  4938
STARLINK-5840           
1 57231U 23094P   23219.50001157 -.00927096  00000+0 -16105-1 0  9990
2 57231  42.9994 132.6825 0001503 265.8925  82.6777 15.52390904  5033
STARLINK-5872           
1 57232U 23094Q   23217.83334491 -.00928387  00000+0 -14508-1 0  9994
2 57232  42.9999 142.4745 0001514 261.5371 114.0399 15.55680230  4776
STARLINK-5866           
1 57233U 23094R   23219.16668981 -.00856386  00000+0 -14656-1 0  9990
2 57233  42.9997 134.6445 0001316 265.2552  16.2889 15.53006984  4983
STARLINK-6368           
1 57234U 23094S   23219.50001157 -.00926789  00000+0 -16096-1 0  9990
2 57234  43.0001 132.6797 0001512 262.4286  86.9467 15.52396347  5038
STARLINK-6360           
1 57235U 23094T   23219.16668981 -.00855725  00000+0 -14647-1 0  9998
2 57235  42.9997 134.6464 0001309 266.9054  13.8410 15.53000743  4983
STARLINK-6315           
1 57236U 23094U   23219.18859262  .00004380  00000+0  36825-4 0  9991
2 57236  43.0018 133.7334 0001858 247.5239 112.5432 15.71361056  4994
STARLINK-6365           
1 57237U 23094V   23219.16668981 -.00856716  00000+0 -14659-1 0  9994
2 57237  43.0002 134.6425 0001340 266.9789  15.3634 15.53012754  4981
STARLINK-6334           
1 57238U 23094W   23219.06104670  .00004820  00000+0  40166-4 0  9998
2 57238  43.0011 134.4980 0001822 263.3649  96.7011 15.71363873  4979
STARLINK-6330           
1 57239U 23094X   23219.50001157 -.00926930  00000+0 -16095-1 0  9992
2 57239  43.0001 132.6779 0001493 268.1464  82.0332 15.52402734  5038
STARLINK-6351           
1 57240U 23094Y   23218.80647910 -.00004581  00000+0 -31480-4 0  9996
2 57240  43.0046 136.0259 0002661 241.0654 118.9947 15.71364488  4932
STARLINK-6349           
1 57241U 23094Z   23219.06135396  .00003764  00000+0  32123-4 0  9991
2 57241  43.0021 134.4998 0002032 257.2195 102.8446 15.71369453  4976
STARLINK-6306           
1 57242U 23094AA  23218.23484473 -.00001852  00000+0 -10662-4 0  9995
2 57242  43.0018 139.4805 0003039 232.0046 128.0548 15.71351350  4845
STARLINK-6346           
1 57243U 23094AB  23219.06126105  .00004117  00000+0  34823-4 0  9993
2 57243  43.0000 134.5003 0001763 257.4359 102.6311 15.71358653  4976
STARLINK-5610           
1 57244U 23094AC  23218.80659179  .00010812  00000+0  85774-4 0  9997
2 57244  43.0041 136.0267 0002990 262.6273  97.4255 15.71358166  4930
STARLINK-5587           
1 57245U 23094AD  23219.06094360  .00010864  00000+0  86161-4 0  9990
2 57245  43.0018 134.4979 0001913 265.6100  94.4550 15.71362350  4972
STARLINK-5049           
1 57246U 23094AE  23219.18701665  .00003507  00000+0  30179-4 0  9991
2 57246  43.0011 133.7203 0001762 256.5518 103.5154 15.71356870  4996
STARLINK-5039           
1 57247U 23094AF  23218.80638303  .00003555  00000+0  30549-4 0  9992
2 57247  43.0042 136.0248 0002879 235.8328 124.2267 15.71357969  4934
STARLINK-5514           
1 57248U 23094AG  23218.80616944  .00008872  00000+0  71019-4 0  9994
2 57248  43.0036 136.0230 0002495 245.0533 115.0076 15.71358120  4930
STARLINK-5517           
1 57249U 23094AH  23219.18764795  .00019984  00000+0  15538-3 0  9994
2 57249  43.0006 133.7277 0001790 255.9748 104.0921 15.71369884  4990
STARLINK-5488           
1 57250U 23094AJ  23218.80585145  .00002409  00000+0  21805-4 0  9993
2 57250  43.0009 136.0233 0001615 257.1720 102.8967 15.71360215  4932
STARLINK-5513           
1 57251U 23094AK  23219.18743573  .00010887  00000+0  86339-4 0  9999
2 57251  43.0004 133.7248 0002170 251.5971 108.4661 15.71360807  4997
STARLINK-5511           
1 57252U 23094AL  23219.18691086  .00007711  00000+0  62160-4 0  9999
2 57252  43.0014 133.7195 0001410 291.5685  68.5032 15.71369302  4999
STARLINK-5516           
1 57253U 23094AM  23218.48815161  .00002267  00000+0  20725-4 0  9996
2 57253  43.0013 137.9403 0001750 243.2151 116.8538 15.71358019  4885
STARLINK-5490           
1 57254U 23094AN  23218.80532719  .00002721  00000+0  24190-4 0  9993
2 57254  43.0030 136.0159 0002166 250.4603 109.6031 15.71361833  4939
STARLINK-5481           
1 57255U 23094AP  23219.05968258  .00012729  00000+0  10032-3 0  9991
2 57255  43.0010 134.4853 0002080 256.6732 103.3904 15.71365759  4972
STARLINK-5512           
1 57256U 23094AQ  23219.05792972 -.00118329  00000+0 -90699-3 0  9992
2 57256  43.0009 134.4710 0002274 270.4119  89.6489 15.71476162  4976
STARLINK-5503           
1 57257U 23094AR  23219.18712474  .00012636  00000+0  99608-4 0  9998
2 57257  43.0011 133.7216 0001671 261.9906  98.0772 15.71367747  4991
STARLINK-5476           
1 57258U 23094AS  23219.05915607  .00006635  00000+0  53996-4 0  9990
2 57258  43.0006 134.4803 0001907 246.1314 113.9354 15.71357053  4976
STARLINK-5505           
1 57259U 23094AT  23219.18637849 -.00008405  00000+0 -60749-4 0  9997
2 57259  43.0013 133.7161 0001754 264.8659  95.2009 15.71340251  4996
STARLINK-5026           
1 57260U 23094AU  23218.48700121  .00000250  00000+0  53569-5 0  9996
2 57260  43.0034 137.9308 0001574 260.0605 100.0085 15.71349181  4887
STARLINK-5485           
1 57261U 23094AV  23217.16667824 -.00872372  00000+0 -12947-1 0  9998
2 57261  42.9998 146.4243 0001373 269.8760 320.0469 15.56895520  4677
STARLINK-5504           
1 57262U 23094AW  23218.48741326  .00001301  00000+0  13371-4 0  9994
2 57262  43.0017 137.9338 0002066 244.9111 115.1543 15.71354569  4885
STARLINK-5509           
1 57263U 23094AX  23218.25001157 -.00867960  00000+0 -13927-1 0  9998
2 57263  42.9998 140.0356 0001424 271.4857 274.3382 15.54792529  4844
STARLINK-5858           
1 57264U 23094AY  23218.48689007  .00004842  00000+0  40349-4 0  9991
2 57264  43.0018 137.9286 0001709 248.8504 111.2181 15.71356005  4884
STARLINK-5890           
1 57265U 23094AZ  23219.05883962  .00002500  00000+0  22502-4 0  9992
2 57265  43.0008 134.4785 0001717 255.6622 104.4056 15.71357528  4972
STARLINK-30198          
1 57290U 23096A   23219.50001157 -.02137453  00000+0 -15163+0 0  9990
2 57290  42.9992 319.8180 0000562 277.3014 223.5189 15.07689455  4337
STARLINK-30239          
1 57291U 23096B   23219.50001157 -.02501889  00000+0 -17756+0 0  9999
2 57291  42.9994 319.7717 0000394 281.7397 238.9245 15.08292867  4321
STARLINK-30210          
1 57292U 23096C   23219.50001157 -.02016905  00000+0 -14375+0 0  9994
2 57292  42.9995 319.7299 0000673 252.1612 285.4217 15.07315871  4348
STARLINK-30202          
1 57293U 23096D   23219.50001157 -.02047255  00000+0 -14613+0 0  9992
2 57293  42.9996 319.6847 0000554 335.4796 221.1046 15.07313205  4496
STARLINK-30235          
1 57294U 23096E   23219.16668981 -.02160217  00000+0 -15058+0 0  9997
2 57294  42.9998 321.4686 0001440 276.5727 285.4428 15.08359808  4278
STARLINK-30206          
1 57295U 23096F   23219.16668981  .00040716  00000+0  30790-2 0  9998
2 57295  42.9994 320.8051 0001746 247.2480 226.7724 15.01698698  4299
STARLINK-30238          
1 57296U 23096G   23219.50001157 -.02142840  00000+0 -15457+0 0  9998
2 57296  42.9998 319.5983 0000689 284.8031 307.4315 15.07088953  4327
STARLINK-30234          
1 57297U 23096H   23219.50001157 -.02168498  00000+0 -15644+0 0  9994
2 57297  42.9996 319.5491 0001448 243.3966   9.2083 15.07122792  4320
STARLINK-30241          
1 57298U 23096J   23219.16668981  .00036698  00000+0  25810-2 0  9992
2 57298  42.9995 320.5992 0001240 265.6023 295.5123 15.04473343  4298
STARLINK-30199          
1 57299U 23096K   23219.50001157 -.02048596  00000+0 -14913+0 0  9990
2 57299  43.0000 319.5132 0000792 242.4193  25.6271 15.06594620  4441
STARLINK-30236          
1 57300U 23096L   23219.50001157 -.02140283  00000+0 -15501+0 0  9993
2 57300  42.9998 319.4635 0001190 255.7613  32.4143 15.06933872  4330
STARLINK-30201          
1 57301U 23096M   23219.44387056 -.00984435  00000+0 -68093-1 0  9991
2 57301  43.0008 319.7257 0002640 248.0911 111.9652 15.07711092  4321
STARLINK-30233          
1 57302U 23096N   23219.50001157  .00032116  00000+0  18785-2 0  9996
2 57302  42.9986 318.7266 0001093 265.2183 332.3332 15.11303172  4344
STARLINK-30232          
1 57303U 23096P   23219.50001157 -.01654138  00000+0 -12499+0 0  9997
2 57303  42.9991 318.9918 0001461 246.3931 242.8195 15.05044757  4354
